<?xml version="1.0" encoding="UTF-8" standalone="yes"?>
<ndm>
    <oem id="CCSDS_OEM_VERS" version="2.0">
        <header>
            <CREATION_DATE>2021-305T17:23:05.942Z</CREATION_DATE>
            <ORIGINATOR>JSC</ORIGINATOR>
        </header>
        <body>
            <segment>
                <metadata>
                    <OBJECT_NAME>ISS</OBJECT_NAME>
                    <OBJECT_ID>1998-067-A</OBJECT_ID>
                    <CENTER_NAME>EARTH</CENTER_NAME>
                    <REF_FRAME>EME2000</REF_FRAME>
                    <TIME_SYSTEM>UTC</TIME_SYSTEM>
                    <START_TIME>2021-305T12:00:00.000Z</START_TIME>
                    <STOP_TIME>2021-320T12:00:00.000Z</STOP_TIME>
                </metadata>
                <data>
                    <COMMENT>Units are in kg and m^2</COMMENT>
                    <COMMENT>MASS=454239.00</COMMENT>
                    <COMMENT>DRAG_AREA=1965.00</COMMENT>
                    <COMMENT>DRAG_COEFF=1.85</COMMENT>
                    <COMMENT>SOLAR_RAD_AREA=0.00</COMMENT>
                    <COMMENT>SOLAR_RAD_COEFF=0.00</COMMENT>
                    <COMMENT>Orbits start at the ascending node epoch </COMMENT>
                    <COMMENT>ISS first asc. node: EPOCH = 2021-11-01T12:35:09.021 $ ORBIT = 2987 $ LAN(DEG) = 153.83475</COMMENT>
                    <COMMENT>ISS last asc. node : EPOCH = 2021-11-16T11:48:46.957 $ ORBIT = 3219 $ LAN(DEG) = 76.64263</COMMENT>
                    <COMMENT>Begin sequence of events</COMMENT>
                    <COMMENT>TRAJECTORY EVENT SUMMARY:</COMMENT>
                    <COMMENT></COMMENT>
                    <COMMENT>|       EVENT        |       TIG        | ORB |   DV    |   HA    |   HP    |</COMMENT>
                    <COMMENT>|                    |       GMT        |     |   M/S   |   KM    |   KM    |</COMMENT>
                    <COMMENT>|                    |                  |     |  (F/S)  |  (NM)   |  (NM)   |</COMMENT>
                    <COMMENT>=============================================================================</COMMENT>
                    <COMMENT> SpX Crew-3 Launch     307:05:10:16.000             0.0     426.6     413.0</COMMENT>
                    <COMMENT>                                                   (0.0)   (230.3)   (223.0)</COMMENT>
                    <COMMENT></COMMENT>
                    <COMMENT> SpX Crew-3 Docking    308:03:00:00.000             0.0     426.2     413.2</COMMENT>
                    <COMMENT>                                                   (0.0)   (230.1)   (223.1)</COMMENT>
                    <COMMENT></COMMENT>
                    <COMMENT> SpX Crew-2 Undock     311:18:00:00.000             0.0     425.7     413.4</COMMENT>
                    <COMMENT>                                                   (0.0)   (229.8)   (223.2)</COMMENT>
                    <COMMENT></COMMENT>
                    <COMMENT>=============================================================================</COMMENT>
                    <COMMENT>End sequence of events</COMMENT>
                    <stateVector>
                        <EPOCH>2021-310T01:32:00.000Z</EPOCH>
                        <X units="km">-4350.3282674207603</X>
                        <Y units="km">3190.7103889477198</Y>
                        <Z units="km">4125.5218926492398</Z>
                        <X_DOT units="km/s">-5.8874704284358499</X_DOT>
                        <Y_DOT units="km/s">-3.1072781508324399</Y_DOT>
                        <Z_DOT units="km/s">-3.79750806374724</Z_DOT>
                    </stateVector>
                    <stateVector>
                        <EPOCH>2021-310T01:36:00.000Z</EPOCH>
                        <X units="km">-5587.8504593055704</X>
                        <Y units="km">2337.9353959062701</Y>
                        <Z units="km">3074.6972426965699</Z>
                        <X_DOT units="km/s">-4.3620561338616097</X_DOT>
                        <Y_DOT units="km/s">-3.95585373192079</Y_DOT>
                        <Z_DOT units="km/s">-4.90581134105377</Z_DOT>
                    </stateVector>
                    <stateVector>
                        <EPOCH>2021-310T01:40:00.000Z</EPOCH>
                        <X units="km">-6418.5934343392601</X>
                        <Y units="km">1314.9682021895701</Y>
                        <Z units="km">1799.42146369805</Z>
                        <X_DOT units="km/s">-2.5184124876568501</X_DOT>
                        <Y_DOT units="km/s">-4.5168000678771199</Y_DOT>
                        <Z_DOT units="km/s">-5.6563857143689296</Z_DOT>
                    </stateVector>
                    <stateVector>
                        <EPOCH>2021-310T01:44:00.000Z</EPOCH>
                        <X units="km">-6781.9774316476696</X>
                        <Y units="km">196.242562147054</Y>
                        <Z units="km">392.75051377290401</Z>
                        <X_DOT units="km/s">-0.49135103107184003</X_DOT>
                        <Y_DOT units="km/s">-4.7489245182674802</Y_DOT>
                        <Z_DOT units="km/s">-5.9940067934402501</Z_DOT>
                    </stateVector>
                    <stateVector>
                        <EPOCH>2021-310T01:48:00.000Z</EPOCH>
                        <X units="km">-6651.6566890281301</X>
                        <Y units="km">-936.789654360349</Y>
                        <Z units="km">-1042.60155460127</Z>
                        <X_DOT units="km/s">1.57043440591381</X_DOT>
                        <Y_DOT units="km/s">-4.6353421079349699</Y_DOT>
                        <Z_DOT units="km/s">-5.8939795579822603</Z_DOT>
                    </stateVector>
                    <stateVector>
                        <EPOCH>2021-310T01:52:00.000Z</EPOCH>
                        <X units="km">-6037.5095638358198</X>
                        <Y units="km">-2001.7086050555199</Y>
                        <Z units="km">-2401.9087920243701</Z>
                        <X_DOT units="km/s">3.5157943463454999</X_DOT>
                        <Y_DOT units="km/s">-4.1849291545005904</Y_DOT>
                        <Z_DOT units="km/s">-5.3643789554437804</Z_DOT>
                    </stateVector>
                    <stateVector>
                        <EPOCH>2021-310T01:56:00.000Z</EPOCH>
                        <X units="km">-4984.7756994228603</X>
                        <Y units="km">-2921.2489883908502</Y>
                        <Z units="km">-3586.2523657750498</Z>
                        <X_DOT units="km/s">5.2030830753654103</X_DOT>
                        <Y_DOT units="km/s">-3.4314212916244902</Y_DOT>
                        <Z_DOT units="km/s">-4.4450927545701804</Z_DOT>
                    </stateVector>
                    <stateVector>
                        <EPOCH>2021-310T02:00:00.000Z</EPOCH>
                        <X units="km">-3570.4849081569901</X>
                        <Y units="km">-3628.94543426976</Y>
                        <Z units="km">-4509.7657864493003</Z>
                        <X_DOT units="km/s">6.5106328048142696</X_DOT>
                        <Y_DOT units="km/s">-2.43043073380524</Y_DOT>
                        <Z_DOT units="km/s">-3.2042266815837999</Z_DOT>
                    </stateVector>
                    <stateVector>
                        <EPOCH>2021-310T02:04:00.000Z</EPOCH>
                        <X units="km">-1897.6053457671101</X>
                        <Y units="km">-4073.8644310425998</Y>
                        <Z units="km">-5105.77559381438</Z>
                        <X_DOT units="km/s">7.3451740872972797</X_DOT>
                        <Y_DOT units="km/s">-1.25494440024212</Y_DOT>
                        <Z_DOT units="km/s">-1.73256337449362</Z_DOT>
                    </stateVector>
                    <stateVector>
                        <EPOCH>2021-310T02:08:00.000Z</EPOCH>
                        <X units="km">-87.452801316292707</X>
                        <Y units="km">-4224.1332587059096</Y>
                        <Z units="km">-5331.4346917756902</Z>
                        <X_DOT units="km/s">7.6478507090821504</X_DOT>
                        <Y_DOT units="km/s">0.010165195293559999</Y_DOT>
                        <Z_DOT units="km/s">-0.13666132969931</Z_DOT>
                    </stateVector>
                    <stateVector>
                        <EPOCH>2021-310T02:12:00.000Z</EPOCH>
                        <X units="km">1729.0293215418401</X>
                        <Y units="km">-4069.0734901085202</Y>
                        <Z units="km">-5170.6187696686102</Z>
                        <X_DOT units="km/s">7.3976574838689304</X_DOT>
                        <Y_DOT units="km/s">1.27417258868071</Y_DOT>
                        <Z_DOT units="km/s">1.4686498450462599</Z_DOT>
                    </stateVector>
                    <stateVector>
                        <EPOCH>2021-310T02:16:00.000Z</EPOCH>
                        <X units="km">3420.52149181</X>
                        <Y units="km">-3619.8795715092401</Y>
                        <Z units="km">-4634.9759951488004</Z>
                        <X_DOT units="km/s">6.6124689269720101</X_DOT>
                        <Y_DOT units="km/s">2.4465254070895401</Y_DOT>
                        <Z_DOT units="km/s">2.9680386652089901</Z_DOT>
                    </stateVector>
                    
                </data>
            </segment>
        </body>
    </oem>
</ndm>
